<?xml version="1.0" encoding="UTF-8"?>
<ndm xmlns:xsi="http://www.w3.org/2001/XMLSchema-instance" xsi:noNamespaceSchemaLocation="https://sanaregistry.org/r/ndmxml_unqualified/ndmxml-2.0.0-master-2.0.xsd">
<omm id="CCSDS_OMM_VERS" version="2.0">
<header><CREATION_DATE/><ORIGINATOR/></header><body><segment><metadata><OBJECT_NAME>IRIDIUM 7 [-]</OBJECT_NAME><OBJECT_ID>1997-020B</OBJECT_ID><CENTER_NAME>EARTH</CENTER_NAME><REF_FRAME>TEME</REF_FRAME><TIME_SYSTEM>UTC</TIME_SYSTEM><MEAN_ELEMENT_THEORY>SGP4</MEAN_ELEMENT_THEORY></metadata><data><meanElements><EPOCH>2024-02-28T23:22:17.412960</EPOCH><MEAN_MOTION>14.35096524</MEAN_MOTION><ECCENTRICITY>.0001953</ECCENTRICITY><INCLINATION>86.4001</INCLINATION><RA_OF_ASC_NODE>15.5406</RA_OF_ASC_NODE><ARG_OF_PERICENTER>89.2387</ARG_OF_PERICENTER><MEAN_ANOMALY>270.9033</MEAN_ANOMALY></meanElements><tleParameters><EPHEMERIS_TYPE>0</EPHEMERIS_TYPE><CLASSIFICATION_TYPE>U</CLASSIFICATION_TYPE><NORAD_CAT_ID>24793</NORAD_CAT_ID><ELEMENT_SET_NO>999</ELEMENT_SET_NO><REV_AT_EPOCH>40408</REV_AT_EPOCH><BSTAR>.18626E-3</BSTAR><MEAN_MOTION_DOT>.551E-5</MEAN_MOTION_DOT><MEAN_MOTION_DDOT>0</MEAN_MOTION_DDOT></tleParameters></data></segment></body></omm>
<omm id="CCSDS_OMM_VERS" version="2.0">
<header><CREATION_DATE/><ORIGINATOR/></header><body><segment><metadata><OBJECT_NAME>IRIDIUM 5 [-]</OBJECT_NAME><OBJECT_ID>1997-020D</OBJECT_ID><CENTER_NAME>EARTH</CENTER_NAME><REF_FRAME>TEME</REF_FRAME><TIME_SYSTEM>UTC</TIME_SYSTEM><MEAN_ELEMENT_THEORY>SGP4</MEAN_ELEMENT_THEORY></metadata><data><meanElements><EPOCH>2024-02-28T16:02:47.397696</EPOCH><MEAN_MOTION>14.86392161</MEAN_MOTION><ECCENTRICITY>.0126193</ECCENTRICITY><INCLINATION>86.3915</INCLINATION><RA_OF_ASC_NODE>300.9700</RA_OF_ASC_NODE><ARG_OF_PERICENTER>32.0326</ARG_OF_PERICENTER><MEAN_ANOMALY>328.8488</MEAN_ANOMALY></meanElements><tleParameters><EPHEMERIS_TYPE>0</EPHEMERIS_TYPE><CLASSIFICATION_TYPE>U</CLASSIFICATION_TYPE><NORAD_CAT_ID>24795</NORAD_CAT_ID><ELEMENT_SET_NO>999</ELEMENT_SET_NO><REV_AT_EPOCH>41479</REV_AT_EPOCH><BSTAR>.42588E-3</BSTAR><MEAN_MOTION_DOT>.4377E-4</MEAN_MOTION_DOT><MEAN_MOTION_DDOT>0</MEAN_MOTION_DDOT></tleParameters></data></segment></body></omm>
<omm id="CCSDS_OMM_VERS" version="2.0">
<header><CREATION_DATE/><ORIGINATOR/></header><body><segment><metadata><OBJECT_NAME>IRIDIUM 4 [-]</OBJECT_NAME><OBJECT_ID>1997-020E</OBJECT_ID><CENTER_NAME>EARTH</CENTER_NAME><REF_FRAME>TEME</REF_FRAME><TIME_SYSTEM>UTC</TIME_SYSTEM><MEAN_ELEMENT_THEORY>SGP4</MEAN_ELEMENT_THEORY></metadata><data><meanElements><EPOCH>2024-02-28T21:52:19.803648</EPOCH><MEAN_MOTION>14.36010779</MEAN_MOTION><ECCENTRICITY>.0002111</ECCENTRICITY><INCLINATION>86.4001</INCLINATION><RA_OF_ASC_NODE>12.7617</RA_OF_ASC_NODE><ARG_OF_PERICENTER>83.2370</ARG_OF_PERICENTER><MEAN_ANOMALY>276.9067</MEAN_ANOMALY></meanElements><tleParameters><EPHEMERIS_TYPE>0</EPHEMERIS_TYPE><CLASSIFICATION_TYPE>U</CLASSIFICATION_TYPE><NORAD_CAT_ID>24796</NORAD_CAT_ID><ELEMENT_SET_NO>999</ELEMENT_SET_NO><REV_AT_EPOCH>40438</REV_AT_EPOCH><BSTAR>.21378E-3</BSTAR><MEAN_MOTION_DOT>.64E-5</MEAN_MOTION_DOT><MEAN_MOTION_DDOT>0</MEAN_MOTION_DDOT></tleParameters></data></segment></body></omm>
<omm id="CCSDS_OMM_VERS" version="2.0">
<header><CREATION_DATE/><ORIGINATOR/></header><body><segment><metadata><OBJECT_NAME>IRIDIUM 914 [-]</OBJECT_NAME><OBJECT_ID>1997-030A</OBJECT_ID><CENTER_NAME>EARTH</CENTER_NAME><REF_FRAME>TEME</REF_FRAME><TIME_SYSTEM>UTC</TIME_SYSTEM><MEAN_ELEMENT_THEORY>SGP4</MEAN_ELEMENT_THEORY></metadata><data><meanElements><EPOCH>2024-02-28T22:56:28.700736</EPOCH><MEAN_MOTION>14.39848325</MEAN_MOTION><ECCENTRICITY>.0002556</ECCENTRICITY><INCLINATION>86.3963</INCLINATION><RA_OF_ASC_NODE>22.7298</RA_OF_ASC_NODE><ARG_OF_PERICENTER>41.9304</ARG_OF_PERICENTER><MEAN_ANOMALY>318.2090</MEAN_ANOMALY></meanElements><tleParameters><EPHEMERIS_TYPE>0</EPHEMERIS_TYPE><CLASSIFICATION_TYPE>U</CLASSIFICATION_TYPE><NORAD_CAT_ID>24836</NORAD_CAT_ID><ELEMENT_SET_NO>999</ELEMENT_SET_NO><REV_AT_EPOCH>53886</REV_AT_EPOCH><BSTAR>.21701E-3</BSTAR><MEAN_MOTION_DOT>.701E-5</MEAN_MOTION_DOT><MEAN_MOTION_DDOT>0</MEAN_MOTION_DDOT></tleParameters></data></segment></body></omm>
<omm id="CCSDS_OMM_VERS" version="2.0">
<header><CREATION_DATE/><ORIGINATOR/></header><body><segment><metadata><OBJECT_NAME>IRIDIUM 16 [-]</OBJECT_NAME><OBJECT_ID>1997-030F</OBJECT_ID><CENTER_NAME>EARTH</CENTER_NAME><REF_FRAME>TEME</REF_FRAME><TIME_SYSTEM>UTC</TIME_SYSTEM><MEAN_ELEMENT_THEORY>SGP4</MEAN_ELEMENT_THEORY></metadata><data><meanElements><EPOCH>2024-02-28T21:51:30.585888</EPOCH><MEAN_MOTION>14.37732601</MEAN_MOTION><ECCENTRICITY>.0002938</ECCENTRICITY><INCLINATION>86.4019</INCLINATION><RA_OF_ASC_NODE>44.4430</RA_OF_ASC_NODE><ARG_OF_PERICENTER>133.4269</ARG_OF_PERICENTER><MEAN_ANOMALY>226.7174</MEAN_ANOMALY></meanElements><tleParameters><EPHEMERIS_TYPE>0</EPHEMERIS_TYPE><CLASSIFICATION_TYPE>U</CLASSIFICATION_TYPE><NORAD_CAT_ID>24841</NORAD_CAT_ID><ELEMENT_SET_NO>999</ELEMENT_SET_NO><REV_AT_EPOCH>39883</REV_AT_EPOCH><BSTAR>.20934E-3</BSTAR><MEAN_MOTION_DOT>.649E-5</MEAN_MOTION_DOT><MEAN_MOTION_DDOT>0</MEAN_MOTION_DDOT></tleParameters></data></segment></body></omm>
<omm id="CCSDS_OMM_VERS" version="2.0">
<header><CREATION_DATE/><ORIGINATOR/></header><body><segment><metadata><OBJECT_NAME>IRIDIUM 911 [-]</OBJECT_NAME><OBJECT_ID>1997-030G</OBJECT_ID><CENTER_NAME>EARTH</CENTER_NAME><REF_FRAME>TEME</REF_FRAME><TIME_SYSTEM>UTC</TIME_SYSTEM><MEAN_ELEMENT_THEORY>SGP4</MEAN_ELEMENT_THEORY></metadata><data><meanElements><EPOCH>2024-02-28T22:26:04.168608</EPOCH><MEAN_MOTION>14.46322483</MEAN_MOTION><ECCENTRICITY>.001239</ECCENTRICITY><INCLINATION>86.4446</INCLINATION><RA_OF_ASC_NODE>43.6516</RA_OF_ASC_NODE><ARG_OF_PERICENTER>233.0864</ARG_OF_PERICENTER><MEAN_ANOMALY>126.9204</MEAN_ANOMALY></meanElements><tleParameters><EPHEMERIS_TYPE>0</EPHEMERIS_TYPE><CLASSIFICATION_TYPE>U</CLASSIFICATION_TYPE><NORAD_CAT_ID>24842</NORAD_CAT_ID><ELEMENT_SET_NO>999</ELEMENT_SET_NO><REV_AT_EPOCH>40650</REV_AT_EPOCH><BSTAR>.22832E-3</BSTAR><MEAN_MOTION_DOT>.839E-5</MEAN_MOTION_DOT><MEAN_MOTION_DDOT>0</MEAN_MOTION_DDOT></tleParameters></data></segment></body></omm>
<omm id="CCSDS_OMM_VERS" version="2.0">
<header><CREATION_DATE/><ORIGINATOR/></header><body><segment><metadata><OBJECT_NAME>IRIDIUM 17 [-]</OBJECT_NAME><OBJECT_ID>1997-034B</OBJECT_ID><CENTER_NAME>EARTH</CENTER_NAME><REF_FRAME>TEME</REF_FRAME><TIME_SYSTEM>UTC</TIME_SYSTEM><MEAN_ELEMENT_THEORY>SGP4</MEAN_ELEMENT_THEORY></metadata><data><meanElements><EPOCH>2024-02-29T02:08:39.900480</EPOCH><MEAN_MOTION>14.36823077</MEAN_MOTION><ECCENTRICITY>.0003713</ECCENTRICITY><INCLINATION>86.3902</INCLINATION><RA_OF_ASC_NODE>74.0144</RA_OF_ASC_NODE><ARG_OF_PERICENTER>105.3751</ARG_OF_PERICENTER><MEAN_ANOMALY>254.7856</MEAN_ANOMALY></meanElements><tleParameters><EPHEMERIS_TYPE>0</EPHEMERIS_TYPE><CLASSIFICATION_TYPE>U</CLASSIFICATION_TYPE><NORAD_CAT_ID>24870</NORAD_CAT_ID><ELEMENT_SET_NO>999</ELEMENT_SET_NO><REV_AT_EPOCH>39548</REV_AT_EPOCH><BSTAR>.17378E-3</BSTAR><MEAN_MOTION_DOT>.533E-5</MEAN_MOTION_DOT><MEAN_MOTION_DDOT>0</MEAN_MOTION_DDOT></tleParameters></data></segment></body></omm>
<omm id="CCSDS_OMM_VERS" version="2.0">
<header><CREATION_DATE/><ORIGINATOR/></header><body><segment><metadata><OBJECT_NAME>IRIDIUM 920 [-]</OBJECT_NAME><OBJECT_ID>1997-034C</OBJECT_ID><CENTER_NAME>EARTH</CENTER_NAME><REF_FRAME>TEME</REF_FRAME><TIME_SYSTEM>UTC</TIME_SYSTEM><MEAN_ELEMENT_THEORY>SGP4</MEAN_ELEMENT_THEORY></metadata><data><meanElements><EPOCH>2024-02-28T23:06:33.082560</EPOCH><MEAN_MOTION>14.40548602</MEAN_MOTION><ECCENTRICITY>.0010741</ECCENTRICITY><INCLINATION>86.3941</INCLINATION><RA_OF_ASC_NODE>54.3858</RA_OF_ASC_NODE><ARG_OF_PERICENTER>195.4310</ARG_OF_PERICENTER><MEAN_ANOMALY>164.6563</MEAN_ANOMALY></meanElements><tleParameters><EPHEMERIS_TYPE>0</EPHEMERIS_TYPE><CLASSIFICATION_TYPE>U</CLASSIFICATION_TYPE><NORAD_CAT_ID>24871</NORAD_CAT_ID><ELEMENT_SET_NO>999</ELEMENT_SET_NO><REV_AT_EPOCH>39828</REV_AT_EPOCH><BSTAR>.18036E-3</BSTAR><MEAN_MOTION_DOT>.594E-5</MEAN_MOTION_DOT><MEAN_MOTION_DDOT>0</MEAN_MOTION_DDOT></tleParameters></data></segment></body></omm>

</ndm>
