IRIDIUM 7 [-]           
1 24793U 97020B   24059.97381265  .00000551  00000+0  18626-3 0  9990
2 24793  86.4001  15.5406 0001953  89.2387 270.9033 14.35096524404081
IRIDIUM 5 [-]           
1 24795U 97020D   24059.66860414  .00004377  00000+0  42588-3 0  9990
2 24795  86.3915 300.9700 0126193  32.0326 328.8488 14.86392161414795
IRIDIUM 4 [-]           
1 24796U 97020E   24059.91134032  .00000640  00000+0  21378-3 0  9992
2 24796  86.4001  12.7617 0002111  83.2370 276.9067 14.36010779404385
IRIDIUM 914 [-]         
1 24836U 97030A   24059.95588774  .00000701  00000+0  21701-3 0  9996
2 24836  86.3963  22.7298 0002556  41.9304 318.2090 14.39848325538869
IRIDIUM 16 [-]          
1 24841U 97030F   24059.91077067  .00000649  00000+0  20934-3 0  9994
2 24841  86.4019  44.4430 0002938 133.4269 226.7174 14.37732601398832
IRIDIUM 911 [-]         
1 24842U 97030G   24059.93477047  .00000839  00000+0  22832-3 0  9999
2 24842  86.4446  43.6516 0012390 233.0864 126.9204 14.46322483406506
IRIDIUM 17 [-]          
1 24870U 97034B   24060.08935070  .00000533  00000+0  17378-3 0  9997
2 24870  86.3902  74.0144 0003713 105.3751 254.7856 14.36823077395484
IRIDIUM 920 [-]         
1 24871U 97034C   24059.96288290  .00000594  00000+0  18036-3 0  9997
2 24871  86.3941  54.3858 0010741 195.4310 164.6563 14.40548602398289
